TRANSPORTER-17 OBJECT AA
1 69893U 26156AA  26203.90752191  .00001998  00000+0  20556-3 0  9999
2 69893  97.7537 104.1005 0007008  90.1893 270.0129 14.91402632  2321
TRANSPORTER-17 OBJECT AB
1 69894U 26156AB  26203.90594522  .00000643  00000+0  69669-4 0  9997
2 69894  97.7550 104.1049 0007308  94.6146 265.5907 14.91539697  2323
TRANSPORTER-17 OBJECT AC
1 69895U 26156AC  26203.83869967  .00000734  00000+0  78727-4 0  9994
2 69895  97.7514 104.0308 0007933  92.2125 268.0002 14.91556079  2312
TRANSPORTER-17 OBJECT AD
1 69896U 26156AD  26203.90112654  .00001189  00000+0  12276-3 0  9998
2 69896  97.7528 104.1063 0009195 102.0747 258.1503 14.92009111  2327
TRANSPORTER-17 OBJECT AE
1 69897U 26156AE  26203.84728271  .00001242  00000+0  13205-3 0  9993
2 69897  97.7569 104.0294 0003662  95.8906 264.2730 14.90734683  2313
TRANSPORTER-17 OBJECT AF
1 69898U 26156AF  26203.90669257  .00000651  00000+0  70580-4 0  9992
2 69898  97.7547 104.1029 0007113  93.1213 267.0820 14.91467944  2320
TRANSPORTER-17 OBJECT AG
1 69899U 26156AG  26203.77546496  .00000606  00000+0  66622-4 0  9999
2 69899  97.7511 103.9598 0006715  82.6728 277.5253 14.91183543  2305
TRANSPORTER-17 OBJECT AH
1 69900U 26156AH  26203.90980084  .00002207  00000+0  22773-3 0  9999
2 69900  97.7560 104.1024 0006075  86.7862 273.4052 14.91180589  2323
TRANSPORTER-17 OBJECT AJ
1 69901U 26156AJ  26203.91069408  .00000669  00000+0  73100-4 0  9990
2 69901  97.7525 104.0931 0006220  81.0051 279.1871 14.91084152  2322
TRANSPORTER-17 OBJECT AK
1 69902U 26156AK  26203.91156401  .00001374  00000+0  14449-3 0  9995
2 69902  97.7491 104.0861 0005789  78.6464 281.5404 14.91007897  2326
TRANSPORTER-17 OBJECT AL
1 69903U 26156AL  26203.91170736  .00001325  00000+0  13963-3 0  9999
2 69903  97.7575 104.1013 0005018  87.1962 272.9831 14.90992818  2326
TRANSPORTER-17 OBJECT AM
1 69904U 26156AM  26203.90549518  .00000958  00000+0  10103-3 0  9991
2 69904  97.7510 104.0960 0007795  93.7147 266.4963 14.91586586  2212
TRANSPORTER-17 OBJECT AN
1 69905U 26156AN  26203.84419190  .00002999  00000+0  30855-3 0  9990
2 69905  97.7563 104.0348 0005301  85.9179 274.2645 14.91047916  2314
TRANSPORTER-17 OBJECT AP
1 69906U 26156AP  26203.91210276  .00000870  00000+0  93655-4 0  9997
2 69906  97.7474 104.0826 0005606  75.4566 284.7274 14.90950887  2323
TRANSPORTER-17 OBJECT AQ
1 69907U 26156AQ  26203.91220825  .00000458  00000+0  51993-4 0  9990
2 69907  97.7498 104.0867 0005234  79.7497 280.4311 14.90936472  2321
TRANSPORTER-17 OBJECT AR
1 69908U 26156AR  26203.90667922  .00001137  00000+0  11913-3 0  9995
2 69908  97.7518 104.0966 0007567  90.2023 270.0063 14.91475467  2321
TRANSPORTER-17 OBJECT AS
1 69909U 26156AS  26203.90743061  .00000796  00000+0  85277-4 0  9990
2 69909  97.7537 104.0999 0007059  90.0447 270.1580 14.91399481  2329
TRANSPORTER-17 OBJECT AT
1 69910U 26156AT  26203.84495238  .00003050  00000+0  31418-3 0  9998
2 69910  97.7544 104.0296 0004896  88.7139 271.4640 14.90977199  2314
TRANSPORTER-17 OBJECT AU
1 69911U 26156AU  26203.78047875  .00000888  00000+0  96126-4 0  9996
2 69911  97.7537 103.9583 0003723  85.7097 274.4547 14.90700197  2302
TRANSPORTER-17 OBJECT AV
1 69912U 26156AV  26203.91355732  .00001260  00000+0  13368-3 0  9997
2 69912  97.7554 104.0943 0004182  88.1438 272.0259 14.90815713  2327
TRANSPORTER-17 OBJECT AW
1 69913U 26156AW  26203.91267100  .00001090  00000+0  11608-3 0  9995
2 69913  97.7581 104.0999 0004365  96.2121 263.9595 14.90899224  2322
TRANSPORTER-17 OBJECT AX
1 69914U 26156AX  26203.91424628  .00000902  00000+0  97458-4 0  9995
2 69914  97.7558 104.0952 0004432  75.0395 285.1314 14.90746120  2320
TRANSPORTER-17 OBJECT AY
1 69915U 26156AY  26203.90423100  .00001111  00000+0  11587-3 0  9990
2 69915  97.7511 104.0980 0008377  95.9944 264.2230 14.91710324  2327
TRANSPORTER-17 OBJECT AZ
1 69916U 26156AZ  26203.84590002  .00002181  00000+0  22690-3 0  9995
2 69916  97.7513 104.0232 0004553  83.7866 276.3871 14.90875909  2314
TRANSPORTER-17 OBJECT BA
1 69917U 26156BA  26203.82877759  .00001444  00000+0  14596-3 0  9998
2 69917  97.7572 104.0553 0011221 108.1070 252.1372 14.92521525  2317
TRANSPORTER-17 OBJECT BB
1 69918U 26156BB  26203.83677489  .00000624  00000+0  67490-4 0  9999
2 69918  97.7551 104.0419 0007894 100.0455 260.1654 14.91740376  2313
TRANSPORTER-17 OBJECT BC
1 69919U 26156BC  26203.83544087  .00000629  00000+0  67724-4 0  9992
2 69919  97.7518 104.0364 0008723  99.8524 260.3680 14.91869126  2316
TRANSPORTER-17 OBJECT BD
1 69920U 26156BD  26203.90158436  .00001723  00000+0  17554-3 0  9992
2 69920  97.7522 104.1047 0009117 100.1005 260.1242 14.91971773  2325
TRANSPORTER-17 OBJECT BE
1 69921U 26156BE  26203.90224875  .00003274  00000+0  32898-3 0  9995
2 69921  97.7546 104.1097 0008390 102.6549 257.5608 14.91916452  2328
