OBJECT_NAME,OBJECT_ID,EPOCH,MEAN_MOTION,ECCENTRICITY,INCLINATION,RA_OF_ASC_NODE,ARG_OF_PERICENTER,MEAN_ANOMALY,EPHEMERIS_TYPE,CLASSIFICATION_TYPE,NORAD_CAT_ID,ELEMENT_SET_NO,REV_AT_EPOCH,BSTAR,MEAN_MOTION_DOT,MEAN_MOTION_DDOT
TRANSPORTER-17 OBJECT AA,2026-156AA,2026-07-22T21:46:49.893024,14.91402632,.00070082,97.7537,104.1005,90.1893,270.0129,0,U,69893,999,232,.20556482E-3,.1998E-4,0
TRANSPORTER-17 OBJECT AB,2026-156AB,2026-07-22T21:44:33.667008,14.91539697,.00073083,97.7550,104.1049,94.6146,265.5907,0,U,69894,999,232,.69669467E-4,.643E-5,0
TRANSPORTER-17 OBJECT AC,2026-156AC,2026-07-22T20:07:43.651488,14.91556079,.00079332,97.7514,104.0308,92.2125,268.0002,0,U,69895,999,231,.78727324E-4,.734E-5,0
TRANSPORTER-17 OBJECT AD,2026-156AD,2026-07-22T21:37:37.333056,14.92009111,.00091954,97.7528,104.1063,102.0747,258.1503,0,U,69896,999,232,.12276065E-3,.1189E-4,0
TRANSPORTER-17 OBJECT AE,2026-156AE,2026-07-22T20:20:05.226144,14.90734683,.00036627,97.7569,104.0294,95.8906,264.2730,0,U,69897,999,231,.13205154E-3,.1242E-4,0
TRANSPORTER-17 OBJECT AF,2026-156AF,2026-07-22T21:45:38.238048,14.91467944,.00071138,97.7547,104.1029,93.1213,267.0820,0,U,69898,999,232,.70579877E-4,.651E-5,0
TRANSPORTER-17 OBJECT AG,2026-156AG,2026-07-22T18:36:40.172544,14.91183543,.00067154,97.7511,103.9598,82.6728,277.5253,0,U,69899,999,230,.66622357E-4,.606E-5,0
TRANSPORTER-17 OBJECT AH,2026-156AH,2026-07-22T21:50:06.792576,14.91180589,.00060756,97.7560,104.1024,86.7862,273.4052,0,U,69900,999,232,.22773102E-3,.2207E-4,0
TRANSPORTER-17 OBJECT AJ,2026-156AJ,2026-07-22T21:51:23.968512,14.91084152,.00062209,97.7525,104.0931,81.0051,279.1871,0,U,69901,999,232,.73099866E-4,.669E-5,0
TRANSPORTER-17 OBJECT AK,2026-156AK,2026-07-22T21:52:39.130464,14.91007897,.00057891,97.7491,104.0861,78.6464,281.5404,0,U,69902,999,232,.14449334E-3,.1374E-4,0
TRANSPORTER-17 OBJECT AL,2026-156AL,2026-07-22T21:52:51.515904,14.90992818,.00050186,97.7575,104.1013,87.1962,272.9831,0,U,69903,999,232,.1396267E-3,.1325E-4,0
TRANSPORTER-17 OBJECT AM,2026-156AM,2026-07-22T21:43:54.783552,14.91586586,.00077958,97.7510,104.0960,93.7147,266.4963,0,U,69904,999,221,.10103253E-3,.958E-5,0
TRANSPORTER-17 OBJECT AN,2026-156AN,2026-07-22T20:15:38.180160,14.91047916,.00053017,97.7563,104.0348,85.9179,274.2645,0,U,69905,999,231,.30854956E-3,.2999E-4,0
TRANSPORTER-17 OBJECT AP,2026-156AP,2026-07-22T21:53:25.678464,14.90950887,.00056061,97.7474,104.0826,75.4566,284.7274,0,U,69906,999,232,.93654627E-4,.87E-5,0
TRANSPORTER-17 OBJECT AQ,2026-156AQ,2026-07-22T21:53:34.792800,14.90936472,.00052348,97.7498,104.0867,79.7497,280.4311,0,U,69907,999,232,.51993449E-4,.458E-5,0
TRANSPORTER-17 OBJECT AR,2026-156AR,2026-07-22T21:45:37.084608,14.91475467,.00075676,97.7518,104.0966,90.2023,270.0063,0,U,69908,999,232,.1191329E-3,.1137E-4,0
TRANSPORTER-17 OBJECT AS,2026-156AS,2026-07-22T21:46:42.004704,14.91399481,.00070591,97.7537,104.0999,90.0447,270.1580,0,U,69909,999,232,.85276983E-4,.796E-5,0
TRANSPORTER-17 OBJECT AT,2026-156AT,2026-07-22T20:16:43.885632,14.90977199,.00048961,97.7544,104.0296,88.7139,271.4640,0,U,69910,999,231,.31418197E-3,.305E-4,0
TRANSPORTER-17 OBJECT AU,2026-156AU,2026-07-22T18:43:53.364000,14.90700197,.00037235,97.7537,103.9583,85.7097,274.4547,0,U,69911,999,230,.96126354E-4,.888E-5,0
TRANSPORTER-17 OBJECT AV,2026-156AV,2026-07-22T21:55:31.352448,14.90815713,.00041823,97.7554,104.0943,88.1438,272.0259,0,U,69912,999,232,.13367668E-3,.126E-4,0
TRANSPORTER-17 OBJECT AW,2026-156AW,2026-07-22T21:54:14.774400,14.90899224,.00043652,97.7581,104.0999,96.2121,263.9595,0,U,69913,999,232,.11608377E-3,.109E-4,0
TRANSPORTER-17 OBJECT AX,2026-156AX,2026-07-22T21:56:30.878592,14.90746120,.00044327,97.7558,104.0952,75.0395,285.1314,0,U,69914,999,232,.97458159E-4,.902E-5,0
TRANSPORTER-17 OBJECT AY,2026-156AY,2026-07-22T21:42:05.558400,14.91710324,.00083777,97.7511,104.0980,95.9944,264.2230,0,U,69915,999,232,.1158672E-3,.1111E-4,0
TRANSPORTER-17 OBJECT AZ,2026-156AZ,2026-07-22T20:18:05.761728,14.90875909,.00045533,97.7513,104.0232,83.7866,276.3871,0,U,69916,999,231,.22690435E-3,.2181E-4,0
TRANSPORTER-17 OBJECT BA,2026-156BA,2026-07-22T19:53:26.383776,14.92521525,.00112212,97.7572,104.0553,108.1070,252.1372,0,U,69917,999,231,.1459634E-3,.1444E-4,0
TRANSPORTER-17 OBJECT BB,2026-156BB,2026-07-22T20:04:57.350496,14.91740376,.00078945,97.7551,104.0419,100.0455,260.1654,0,U,69918,999,231,.67490043E-4,.624E-5,0
TRANSPORTER-17 OBJECT BC,2026-156BC,2026-07-22T20:03:02.091168,14.91869126,.00087233,97.7518,104.0364,99.8524,260.3680,0,U,69919,999,231,.67723925E-4,.629E-5,0
TRANSPORTER-17 OBJECT BD,2026-156BD,2026-07-22T21:38:16.888704,14.91971773,.00091174,97.7522,104.1047,100.1005,260.1242,0,U,69920,999,232,.17553589E-3,.1723E-4,0
TRANSPORTER-17 OBJECT BE,2026-156BE,2026-07-22T21:39:14.292000,14.91916452,.00083904,97.7546,104.1097,102.6549,257.5608,0,U,69921,999,232,.32897792E-3,.3274E-4,0
